[{"OBJECT_NAME":"STARLINK-31412","OBJECT_ID":"2024-064N","EPOCH":"2026-03-09T22:25:53.365152","MEAN_MOTION":15.27575254,"ECCENTRICITY":9.531e-5,"INCLINATION":43.0041,"RA_OF_ASC_NODE":54.7488,"ARG_OF_PERICENTER":254.2755,"MEAN_ANOMALY":105.7991,"EPHEMERIS_TYPE":0,"CLASSIFICATION_TYPE":"U","NORAD_CAT_ID":59410,"ELEMENT_SET_NO":999,"REV_AT_EPOCH":10926,"BSTAR":8.75813e-7,"MEAN_MOTION_DOT":-2.38e-6,"MEAN_MOTION_DDOT":0},{"OBJECT_NAME":"ARCSTONE","OBJECT_ID":"2025-135N","EPOCH":"2026-03-09T21:21:29.017152","MEAN_MOTION":15.28638458,"ECCENTRICITY":0.00041199,"INCLINATION":97.4495,"RA_OF_ASC_NODE":185.9194,"ARG_OF_PERICENTER":166.7863,"MEAN_ANOMALY":193.3485,"EPHEMERIS_TYPE":0,"CLASSIFICATION_TYPE":"U","NORAD_CAT_ID":64540,"ELEMENT_SET_NO":999,"REV_AT_EPOCH":3984,"BSTAR":0.00094899777,"MEAN_MOTION_DOT":0.00026427,"MEAN_MOTION_DDOT":0}]
